IRIDIUM 8 [+]           
1 24792U 97020A   16140.32353924  .00000043  00000-0  82302-5 0  9992
2 24792  86.3944 123.3627 0002253  86.1825 273.9628 14.34215236996749
IRIDIUM 7 [+]           
1 24793U 97020B   16140.45673526  .00000020  00000-0  25328-6 0  9991
2 24793  86.3951 123.5685 0002207  84.2292 275.9155 14.34214521996765
IRIDIUM 6 [+]           
1 24794U 97020C   16140.10147226 -.00000012  00000-0 -11194-4 0  9994
2 24794  86.3949 123.6565 0002219  84.4192 275.7257 14.34216445996718
IRIDIUM 5 [+]           
1 24795U 97020D   16140.09521583 -.00000056  00000-0 -27012-4 0  9999
2 24795  86.3928 123.6921 0002345  84.5642 275.5822 14.34212969996794
IRIDIUM 4 [-]           
1 24796U 97020E   16140.49588341  .00000163  00000-0  50119-4 0  9990
2 24796  86.3940 122.7055 0002173  86.1082  64.0565 14.35079629996848
IRIDIUM 914 [-]         
1 24836U 97030A   16140.53854901  .00000185  00000-0  53886-4 0  9997
2 24836  86.3924 140.4943 0001815  43.4446 316.6895 14.38680158992341
IRIDIUM 12 [+]          
1 24837U 97030B   16140.55155926  .00000043  00000-0  82043-5 0  9992
2 24837  86.3956 154.6606 0002366  89.0781  22.7166 14.34217940990525
IRIDIUM 10 [+]          
1 24839U 97030D   16140.17700155  .00000014  00000-0 -19276-5 0  9999
2 24839  86.3960 154.7992 0002272  86.1073 318.4524 14.34219522990485
IRIDIUM 13 [+]          
1 24840U 97030E   16140.18741788  .00000017  00000-0 -90574-6 0  9993
2 24840  86.3961 154.9264 0002409  83.5438 276.6032 14.34219836990476
IRIDIUM 16 [-]          
1 24841U 97030F   16140.54241920  .00000197  00000-0  60157-4 0  9997
2 24841  86.4033 154.8824 0004222 110.5490 249.6160 14.36624864991064
IRIDIUM 911 [-]         
1 24842U 97030G   16140.54627974  .00000227  00000-0  59620-4 0  9992
2 24842  86.4462 155.8962 0013121 326.0735  33.9626 14.44854290996107
IRIDIUM 15 [+]          
1 24869U 97034A   16140.54872992  .00000177  00000-0  56290-4 0  9991
2 24869  86.3986 186.3604 0002389  92.8329  19.2803 14.34220769987492
IRIDIUM 17 [-]          
1 24870U 97034B   16140.52838520  .00000182  00000-0  56140-4 0  9990
2 24870  86.3989 185.1019 0003631  81.2931 278.8677 14.35670289987686
IRIDIUM 920 [-]         
1 24871U 97034C   16140.49684499  .00000188  00000-0  54113-4 0  9995
2 24871  86.3989 172.2613 0011375 184.3518 175.7584 14.39400171989717
IRIDIUM 18 [+]          
1 24872U 97034D   16140.48897084  .00000173  00000-0  54799-4 0  9995
2 24872  86.3989 186.6166 0002411  96.3262 263.8208 14.34220488987489
IRIDIUM 921 [-]         
1 24873U 97034E   16140.37524894  .00002234  00000-0  13375-3 0  9994
2 24873  86.3965 251.9265 0008968  42.9314 317.2622 15.10441930 28637
IRIDIUM 26 [-]          
1 24903U 97043A   16140.34094617  .00000146  00000-0  44040-4 0  9994
2 24903  86.3990  59.7007 0002228  90.3698  54.5543 14.35191062981480
IRIDIUM 25 [+]          
1 24904U 97043B   16140.29771411  .00000261  00000-0  86078-4 0  9998
2 24904  86.3984  60.1142 0002235  87.7453 272.3999 14.34216547981364
IRIDIUM 46 [+]          
1 24905U 97043C   16140.31038947  .00000256  00000-0  84479-4 0  9999
2 24905  86.3993  60.6268 0002152  86.9979 273.1463 14.34220165981378
IRIDIUM 23 [S]          
1 24906U 97043D   16140.26401084  .00000247  00000-0  80994-4 0  9998
2 24906  86.3997  60.1164 0002073  86.4339  67.1125 14.34218827981378
IRIDIUM 22 [+]          
1 24907U 97043E   16140.27867860  .00000220  00000-0  71670-4 0  9990
2 24907  86.3993  60.7451 0002193  85.5962 274.5484 14.34217423981367
DUMMY MASS 1 [-]        
1 24925U 97048A   16140.28016798  .00000134  00000-0  12380-4 0  9999
2 24925  86.3389 224.9725 0007205  14.7016 345.4415 14.85076155 13120
DUMMY MASS 2 [-]        
1 24926U 97048B   16140.18985791  .00000145  00000-0  13763-4 0  9995
2 24926  86.3388 226.0642 0008273  19.8247 340.3297 14.84844790 12969
IRIDIUM 29 [-]          
1 24944U 97051A   16140.37530588  .00000132  00000-0  39943-4 0  9994
2 24944  86.3959  91.6265 0002127  79.9161 280.2275 14.34576695977963
IRIDIUM 32 [+]          
1 24945U 97051B   16140.30748381  .00000193  00000-0  61867-4 0  9997
2 24945  86.3960  91.7831 0002176  86.3840 273.7605 14.34219415977964
IRIDIUM 33 [-]          
1 24946U 97051C   16140.35889482  .00000143  00000-0  44430-4 0  9993
2 24946  86.3874  91.5906 0010144  86.7332 273.5024 14.33489320977612
IRIDIUM 28 [-]          
1 24948U 97051E   16140.36157125  .00000164  00000-0  50269-4 0  9998
2 24948  86.3965  91.0880 0002514  93.3535 266.7949 14.35477784978076
IRIDIUM 30 [+]          
1 24949U 97051F   16140.37091013  .00000168  00000-0  52967-4 0  9994
2 24949  86.3963  91.8460 0002206  86.4657 273.6791 14.34215387977959
IRIDIUM 31 [+]          
1 24950U 97051G   16140.29479938  .00000008  00000-0 -41871-5 0  9990
2 24950  86.3960  91.8784 0002266  82.3887 277.7567 14.34214120977953
IRIDIUM 19 [+]          
1 24965U 97056A   16140.41867909  .00000046  00000-0  93811-5 0  9996
2 24965  86.3945 123.3314 0002279  86.4257 273.7200 14.34214887976119
IRIDIUM 35 [+]          
1 24966U 97056B   16140.50113136  .00000038  00000-0  64863-5 0  9999
2 24966  86.3945 123.2936 0002283  86.8168 273.3288 14.34215118976108
IRIDIUM 36 [-]          
1 24967U 97056C   16140.38050744  .00000131  00000-0  38520-4 0  9995
2 24967  86.3954 122.7110 0002281  84.9189 275.2268 14.35526430976367
IRIDIUM 37 [+]          
1 24968U 97056D   16140.33622335  .00000021  00000-0  30843-6 0  9992
2 24968  86.3947 123.5375 0002265  86.4255 273.7199 14.34215088976083
IRIDIUM 34 [+]          
1 24969U 97056E   16140.00641029  .00000017  00000-0 -92815-6 0  9991
2 24969  86.3949 123.6125 0002258  82.1633 277.9819 14.34213240976033
IRIDIUM 43 [+]          
1 25039U 97069A   16140.55240629  .00000197  00000-0  63115-4 0  9992
2 25039  86.3991 186.5144 0002414  90.2395 269.9077 14.34220748969891
IRIDIUM 41 [+]          
1 25040U 97069B   16140.56787128  .00000184  00000-0  58739-4 0  9997
2 25040  86.3988 186.4704 0002416  97.3910  15.3089 14.34220199969899
IRIDIUM 40 [+]          
1 25041U 97069C   16140.50165709  .00000171  00000-0  53947-4 0  9999
2 25041  86.3987 186.7223 0002740  71.4381 288.7113 14.34221809969908
IRIDIUM 39 [+]          
1 25042U 97069D   16140.43822007  .00000249  00000-0  82008-4 0  9999
2 25042  86.3998 186.8135 0002393  99.9754 260.1712 14.34223448969873
IRIDIUM 38 [-]          
1 25043U 97069E   16140.44551017  .00000172  00000-0  52302-4 0  9990
2 25043  86.3986 184.1798 0003407 104.8771 255.2804 14.35947846970223
IRIDIUM 42 [-]          
1 25077U 97077A   16140.49642916  .00000171  00000-0  53606-4 0  9997
2 25077  86.3992 186.5136 0002485  94.4243 265.7237 14.34478397965759
IRIDIUM 44 [-]          
1 25078U 97077B   16140.52414768  .00000187  00000-0  55365-4 0  9995
2 25078  86.3981 177.0569 0003916 103.2633 256.9002 14.38030956967051
IRIDIUM 45 [+]          
1 25104U 97082A   16140.28845777  .00000192  00000-0  61393-4 0  9996
2 25104  86.3959  91.9231 0003108 107.7196 252.4339 14.34219546963917
IRIDIUM 24 [-]          
1 25105U 97082B   16140.27122864  .00000193  00000-0  55323-4 0  9998
2 25105  86.3958  41.7943 0010874 191.8921 168.2023 14.39771405966175
IRIDIUM 47 [+]          
1 25106U 97082C   16140.31673145  .00000253  00000-0  83145-4 0  9997
2 25106  86.3981  59.9900 0002107  87.4601 272.6836 14.34215027963910
IRIDIUM 49 [+]          
1 25108U 97082E   16140.29041916  .00000134  00000-0  40864-4 0  9990
2 25108  86.3984  60.0935 0002184  86.1077  72.8092 14.34214930963910
IRIDIUM 52 [+]          
1 25169U 98010A   16140.07959841  .00000034  00000-0  52351-5 0  9994
2 25169  86.3961 155.1351 0002380  89.1856 270.9612 14.34217803955299
IRIDIUM 56 [+]          
1 25170U 98010B   16140.49187321  .00000082  00000-0  22127-4 0  9998
2 25170  86.3950 155.0648 0002406  98.1823 261.9646 14.34217594955339
IRIDIUM 54 [+]          
1 25171U 98010C   16140.17473684  .00000021  00000-0  55820-6 0  9995
2 25171  86.3965 155.1140 0002297  85.5161 274.6297 14.34219715955450
IRIDIUM 50 [+]          
1 25172U 98010D   16140.57722196  .00000036  00000-0  56485-5 0  9998
2 25172  86.3960 154.9043 0002282  87.8782  25.4212 14.34217972955343
IRIDIUM 53 [+]          
1 25173U 98010E   16140.50454965  .00000048  00000-0  10090-4 0  9992
2 25173  86.3959 154.9405 0002374  88.3353 271.8115 14.34217889955342
IRIDIUM 51 [S]          
1 25262U 98018A   16140.45039137  .00000049  00000-0  10431-4 0  9993
2 25262  86.3939 123.6028 0002144  86.5162 273.6279 14.34212379954727
IRIDIUM 61 [+]          
1 25263U 98018B   16140.48210725  .00000049  00000-0  10566-4 0  9990
2 25263  86.3947 123.4427 0002256  87.1433 273.0021 14.34214676950435
IRIDIUM 55 [+]          
1 25272U 98019A   16140.41530652  .00000237  00000-0  77680-4 0  9997
2 25272  86.3959  91.6490 0002228  86.2129 273.9321 14.34215571949621
IRIDIUM 57 [+]          
1 25273U 98019B   16140.38993098  .00000115  00000-0  33864-4 0  9992
2 25273  86.3962  91.9498 0002161  86.4477 273.6966 14.34218603949622
IRIDIUM 58 [+]          
1 25274U 98019C   16140.39627608  .00000183  00000-0  58330-4 0  9995
2 25274  86.3964  92.1333 0002140  87.3452 272.7989 14.34219399949624
IRIDIUM 59 [+]          
1 25275U 98019D   16140.40262092  .00000192  00000-0  61657-4 0  9996
2 25275  86.3960  92.0051 0002145  83.6422 276.5018 14.34215375949623
IRIDIUM 60 [+]          
1 25276U 98019E   16140.40896624  .00000176  00000-0  55918-4 0  9996
2 25276  86.3958  91.6371 0002224  86.1370 274.0080 14.34219217949620
IRIDIUM 62 [+]          
1 25285U 98021A   16140.23085666  .00000241  00000-0  78999-4 0  9993
2 25285  86.3989  28.6084 0002069  87.6200 272.5232 14.34217203948556
IRIDIUM 63 [-]          
1 25286U 98021B   16140.23504368  .00000168  00000-0  52573-4 0  9997
2 25286  86.4018  28.9889 0001992  82.4974  67.4641 14.34591598948560
